[
    {
        "CCSDS_OMM_VERS": "3.0",
        "COMMENT": "GENERATED VIA SPACE-TRACK.ORG API",
        "CREATION_DATE": "2025-03-02T09:28:08",
        "ORIGINATOR": "18 SPCS",
        "OBJECT_NAME": "COSMOS 2501 (GLONASS)",
        "OBJECT_ID": "2014-075A",
        "CENTER_NAME": "EARTH",
        "REF_FRAME": "TEME",
        "TIME_SYSTEM": "UTC",
        "MEAN_ELEMENT_THEORY": "SGP4",
        "EPOCH": "2025-03-01T06:53:35.929824",
        "MEAN_MOTION": "2.13101241",
        "ECCENTRICITY": "0.00196620",
        "INCLINATION": "63.6184",
        "RA_OF_ASC_NODE": "206.7481",
        "ARG_OF_PERICENTER": "204.8263",
        "MEAN_ANOMALY": "155.0419",
        "EPHEMERIS_TYPE": "0",
        "CLASSIFICATION_TYPE": "U",
        "NORAD_CAT_ID": "40315",
        "ELEMENT_SET_NO": "999",
        "REV_AT_EPOCH": "7977",
        "BSTAR": "0.00000000000000",
        "MEAN_MOTION_DOT": "0.00000047",
        "MEAN_MOTION_DDOT": "0.0000000000000",
        "SEMIMAJOR_AXIS": "25508.085",
        "PERIOD": "675.735",
        "APOAPSIS": "19180.104",
        "PERIAPSIS": "19079.796",
        "OBJECT_TYPE": "PAYLOAD",
        "RCS_SIZE": "LARGE",
        "COUNTRY_CODE": "CIS",
        "LAUNCH_DATE": "2014-11-30",
        "SITE": "PKMTR",
        "DECAY_DATE": null,
        "FILE": "4656805",
        "GP_ID": "282047065",
        "TLE_LINE0": "0 COSMOS 2501 (GLONASS)",
        "TLE_LINE1": "1 40315U 14075A   25060.28722141  .00000047  00000-0  00000-0 0  9991",
        "TLE_LINE2": "2 40315  63.6184 206.7481 0019662 204.8263 155.0419  2.13101241 79770"
    }
]